PAKSAT-1R               
1 37779U 11042A   26180.52467644  .00000164  00000+0  00000+0 0  9995
2 37779   0.7199  84.5036 0003474 350.7116  69.2214  1.00273378 54608
SES-2                   
1 37809U 11049A   26180.49991141 -.00000185  00000+0  00000+0 0  9990
2 37809   0.0905  93.7903 0003122   2.6083 274.1509  1.00271704 54088
ARABSAT-5C              
1 37810U 11049B   26180.30722257  .00000134  00000+0  00000+0 0  9995
2 37810   0.0494  14.5140 0003330 101.7063 291.7570  1.00270620 54154
EUTELSAT 7 WEST A       
1 37816U 11051A   26180.44432398 -.00000049  00000+0  00000+0 0  9999
2 37816   0.0594   0.5884 0004735 108.3892 321.1945  1.00271488 54005
QUETZSAT 1              
1 37826U 11054A   26180.50190477 -.00000230  00000+0  00000+0 0  9991
2 37826   0.0110 356.1217 0002998 106.2196 278.9369  1.00271651 49996
INTELSAT 18 (IS-18)     
1 37834U 11056A   26180.31155962  .00000064  00000+0  00000+0 0  9995
2 37834   0.0192 338.5230 0002067 118.2962 112.7406  1.00271431 53937
EUTELSAT 16A            
1 37836U 11057A   26180.37754924  .00000115  00000+0  00000+0 0  9994
2 37836   0.0422  16.9566 0005584  81.6515 330.7650  1.00273222  7468
VIASAT-1                
1 37843U 11059A   26180.47614433 -.00000012  00000+0  00000+0 0  9992
2 37843   0.0192 346.4572 0002654 111.9140 235.4969  1.00270829 47440
ASIASAT 7               
1 37933U 11069A   26180.32422240 -.00000323  00000+0  00000+0 0  9995
2 37933   0.0303 284.7882 0001661 146.4669  68.3816  1.00273468 44980
BEIDOU-2 IGSO-5         
1 37948U 11073A   26175.65702808 -.00000196  00000+0  00000+0 0  9995
2 37948  47.6633 271.4526 0114223 222.0346 107.5350  1.00272136 53204
LUCH-5A                 
1 37951U 11074B   26180.50476422 -.00000046  00000+0  00000+0 0  9994
2 37951   8.7838  73.6290 0002737  37.0406 155.5636  1.00272720 53175
NIGCOMSAT 1R            
1 38014U 11077A   26180.52562977  .00000156  00000+0  00000+0 0  9992
2 38014   0.0482 219.0777 0002892 140.4991 149.7382  1.00270440 53082
WGS F4 (USA 233)        
1 38070U 12003A   26180.39215259  .00000000  00000+0  00000+0 0  9995
2 38070   0.0251  26.4048 0001672  94.2292  26.4366  1.00268508 44270
SES-4                   
1 38087U 12007A   26180.37018252 -.00000157  00000+0  00000+0 0  9993
2 38087   0.0197  38.0625 0002446  64.2408 286.4215  1.00274337 52348
BEIDOU-2 G5             
1 38091U 12008A   26179.98575640  .00000064  00000+0  00000+0 0  9999
2 38091   3.6028  69.6321 0008519 275.8995 345.1785  1.00276642 52487
MUOS-1                  
1 38093U 12009A   26180.42544487 -.00000121  00000+0  00000+0 0  9993
2 38093   5.5004  47.1415 0057643   2.5153 281.0299  1.00272806 52567
INTELSAT 22 (IS-22)     
1 38098U 12011A   26180.53143646 -.00000048  00000+0  00000+0 0  9993
2 38098   0.0202  29.2624 0001945  89.0930  62.6841  1.00272455  7311
APSTAR-7                
1 38107U 12013A   26180.53238979 -.00000091  00000+0  00000+0 0  9998
2 38107   0.0166  64.5352 0003282  40.8465  80.4017  1.00272211 51935
YAHSAT 1B               
1 38245U 12016A   26180.45535382  .00000137  00000+0  00000+0 0  9993
2 38245   0.0906  89.1601 0003470  30.1821   9.7174  1.00271979 45736
AEHF-2 (USA 235)        
1 38254U 12019A   26180.37130919 -.00000142  00000+0  00000+0 0  9991
2 38254   6.6777  57.4067 0004158 224.6077 112.5036  1.00202319  7106
JCSAT-13                
1 38331U 12023A   26180.54176580 -.00000345  00000+0  00000+0 0  9990
2 38331   0.0183 357.1511 0003003 112.1967 127.3132  1.00272246 51669
VINASAT-2               
1 38332U 12023B   26180.55044823 -.00000318  00000+0  00000+0 0  9996
2 38332   0.0130   9.4134 0002585  92.3395 145.8891  1.00272143 46788
NIMIQ 6                 
1 38342U 12026A   26180.49913140 -.00000162  00000+0  00000+0 0  9997
2 38342   0.0188  50.4755 0003015  44.3048 271.3760  1.00271166 50530
ZHONGXING-2A            
1 38352U 12028A   26180.63896951 -.00000283  00000+0  00000+0 0  9990
2 38352   1.4854  83.7428 0001941  19.9934 142.2441  1.00272990 51427
INTELSAT 19 (IS-19)     
1 38356U 12030A   26180.50947317 -.00000045  00000+0  00000+0 0  9992
2 38356   0.0012   9.2124 0003437  99.8161 157.9728  1.00271372 50578
ECHOSTAR 17             
1 38551U 12035A   26180.32864140 -.00000064  00000+0  00000+0 0  9997
2 38551   0.0189  24.2057 0002055  87.0795 177.3327  1.00267904 51184
METEOSAT-10 (MSG-3)     
1 38552U 12035B   26180.30332256  .00000001  00000+0  00000+0 0  9994
2 38552   4.6991  60.9643 0001727  12.0419 313.7312  1.00269108 50974
SES-5                   
1 38652U 12036A   26180.30427588  .00000044  00000+0  00000+0 0  9996
2 38652   0.0474 316.3173 0002202 137.6711 297.9149  1.00268942 44570
INTELSAT 20 (IS-20)     
1 38740U 12043A   26179.87683578  .00000000  00000+0  00000+0 0  9997
2 38740   0.0434  74.6500 0002472 108.3479 118.1184  1.00268936 50862
HYLAS 2                 
1 38741U 12043B   26180.50277144 -.00000248  00000+0  00000+0 0  9993
2 38741   2.4578  80.9294 0002823  35.1882 269.8905  1.00271327 50899
INTELSAT 21 (IS-21)     
1 38749U 12045A   26180.29179582 -.00000274  00000+0  00000+0 0  9995
2 38749   0.0311  74.0887 0002117  28.9679 221.3902  1.00276856 50643
ASTRA 2F                
1 38778U 12051A   26180.30886925  .00000161  00000+0  00000+0 0  9996
2 38778   0.0787 255.9609 0002108 272.4559 248.3665  1.00270907 41250
