OBJECT_NAME,OBJECT_ID,EPOCH,MEAN_MOTION,ECCENTRICITY,INCLINATION,RA_OF_ASC_NODE,ARG_OF_PERICENTER,MEAN_ANOMALY,EPHEMERIS_TYPE,CLASSIFICATION_TYPE,NORAD_CAT_ID,ELEMENT_SET_NO,REV_AT_EPOCH,BSTAR,MEAN_MOTION_DOT,MEAN_MOTION_DDOT
PAKSAT-1R,2011-042A,2026-06-29T12:35:32.044416,1.00273378,.0003474,0.7199,84.5036,350.7116,69.2214,0,U,37779,999,5460,0,.164E-5,0
SES-2,2011-049A,2026-06-29T11:59:52.345824,1.00271704,.0003122,0.0905,93.7903,2.6083,274.1509,0,U,37809,999,5408,0,-.185E-5,0
ARABSAT-5C,2011-049B,2026-06-29T07:22:24.030048,1.00270620,.000333,0.0494,14.5140,101.7063,291.7570,0,U,37810,999,5415,0,.134E-5,0
EUTELSAT 7 WEST A,2011-051A,2026-06-29T10:39:49.591872,1.00271488,.0004735,0.0594,0.5884,108.3892,321.1945,0,U,37816,999,5400,0,-.49E-6,0
QUETZSAT 1,2011-054A,2026-06-29T12:02:44.572128,1.00271651,.0002998,0.0110,356.1217,106.2196,278.9369,0,U,37826,999,4999,0,-.23E-5,0
INTELSAT 18 (IS-18),2011-056A,2026-06-29T07:28:38.751168,1.00271431,.0002067,0.0192,338.5230,118.2962,112.7406,0,U,37834,999,5393,0,.64E-6,0
EUTELSAT 16A,2011-057A,2026-06-29T09:03:40.254336,1.00273222,.0005584,0.0422,16.9566,81.6515,330.7650,0,U,37836,999,746,0,.115E-5,0
VIASAT-1,2011-059A,2026-06-29T11:25:38.870112,1.00270829,.0002654,0.0192,346.4572,111.9140,235.4969,0,U,37843,999,4744,0,-.12E-6,0
ASIASAT 7,2011-069A,2026-06-29T07:46:52.815360,1.00273468,.0001661,0.0303,284.7882,146.4669,68.3816,0,U,37933,999,4498,0,-.323E-5,0
BEIDOU-2 IGSO-5,2011-073A,2026-06-24T15:46:07.226112,1.00272136,.01142233,47.6633,271.4526,222.0346,107.5350,0,U,37948,999,5320,0,-.196E-5,0
LUCH-5A,2011-074B,2026-06-29T12:06:51.628608,1.00272720,.0002737,8.7838,73.6290,37.0406,155.5636,0,U,37951,999,5317,0,-.46E-6,0
NIGCOMSAT 1R,2011-077A,2026-06-29T12:36:54.412128,1.00270440,.0002892,0.0482,219.0777,140.4991,149.7382,0,U,38014,999,5308,0,.156E-5,0
WGS F4 (USA 233),2012-003A,2026-06-29T09:24:41.983776,1.00268508,.0001672,0.0251,26.4048,94.2292,26.4366,0,U,38070,999,4427,0,0,0
SES-4,2012-007A,2026-06-29T08:53:03.769728,1.00274337,.0002446,0.0197,38.0625,64.2408,286.4215,0,U,38087,999,5234,0,-.157E-5,0
BEIDOU-2 G5,2012-008A,2026-06-28T23:39:29.352960,1.00276642,.00085197,3.6028,69.6321,275.8995,345.1785,0,U,38091,999,5248,0,.64E-6,0
MUOS-1,2012-009A,2026-06-29T10:12:38.436768,1.00272806,.0057643,5.5004,47.1415,2.5153,281.0299,0,U,38093,999,5256,0,-.121E-5,0
INTELSAT 22 (IS-22),2012-011A,2026-06-29T12:45:16.110144,1.00272455,.0001945,0.0202,29.2624,89.0930,62.6841,0,U,38098,999,731,0,-.48E-6,0
APSTAR-7,2012-013A,2026-06-29T12:46:38.477856,1.00272211,.0003282,0.0166,64.5352,40.8465,80.4017,0,U,38107,999,5193,0,-.91E-6,0
YAHSAT 1B,2012-016A,2026-06-29T10:55:42.570048,1.00271979,.000347,0.0906,89.1601,30.1821,9.7174,0,U,38245,999,4573,0,.137E-5,0
AEHF-2 (USA 235),2012-019A,2026-06-29T08:54:41.114016,1.00202319,.0004158,6.6777,57.4067,224.6077,112.5036,0,U,38254,999,710,0,-.142E-5,0
JCSAT-13,2012-023A,2026-06-29T13:00:08.565120,1.00272246,.0003003,0.0183,357.1511,112.1967,127.3132,0,U,38331,999,5166,0,-.345E-5,0
VINASAT-2,2012-023B,2026-06-29T13:12:38.727072,1.00272143,.0002585,0.0130,9.4134,92.3395,145.8891,0,U,38332,999,4678,0,-.318E-5,0
NIMIQ 6,2012-026A,2026-06-29T11:58:44.952960,1.00271166,.0003015,0.0188,50.4755,44.3048,271.3760,0,U,38342,999,5053,0,-.162E-5,0
ZHONGXING-2A,2012-028A,2026-06-29T15:20:06.965664,1.00272990,.0001941,1.4854,83.7428,19.9934,142.2441,0,U,38352,999,5142,0,-.283E-5,0
INTELSAT 19 (IS-19),2012-030A,2026-06-29T12:13:38.481888,1.00271372,.0003437,0.0012,9.2124,99.8161,157.9728,0,U,38356,999,5057,0,-.45E-6,0
ECHOSTAR 17,2012-035A,2026-06-29T07:53:14.616960,1.00267904,.0002055,0.0189,24.2057,87.0795,177.3327,0,U,38551,999,5118,0,-.64E-6,0
METEOSAT-10 (MSG-3),2012-035B,2026-06-29T07:16:47.069184,1.00269108,.0001727,4.6991,60.9643,12.0419,313.7312,0,U,38552,999,5097,0,.1E-7,0
SES-5,2012-036A,2026-06-29T07:18:09.436032,1.00268942,.0002202,0.0474,316.3173,137.6711,297.9149,0,U,38652,999,4457,0,.44E-6,0
INTELSAT 20 (IS-20),2012-043A,2026-06-28T21:02:38.611392,1.00268936,.00024723,0.0434,74.6500,108.3479,118.1184,0,U,38740,999,5086,0,0,0
HYLAS 2,2012-043B,2026-06-29T12:03:59.452416,1.00271327,.0002823,2.4578,80.9294,35.1882,269.8905,0,U,38741,999,5089,0,-.248E-5,0
INTELSAT 21 (IS-21),2012-045A,2026-06-29T07:00:11.158848,1.00276856,.0002117,0.0311,74.0887,28.9679,221.3902,0,U,38749,999,5064,0,-.274E-5,0
ASTRA 2F,2012-051A,2026-06-29T07:24:46.303200,1.00270907,.0002108,0.0787,255.9609,272.4559,248.3665,0,U,38778,999,4125,0,.161E-5,0
